{
  "type": "FeatureCollection",
  "features": [
    {
      "type": "Feature",
      "properties": {
        "norad_id": 24946,
        "name": "IRIDIUM 33",
        "group": "iridium-33-debris",
        "lat": 43.54786233354928,
        "lon": 65.96851048827438,
        "alt_km": 773.7069327646195,
        "timestamp": "2025-12-26T07:29:18.838974+00:00",
        "meta_object_name": "IRIDIUM 33",
        "meta_object_id": "1997-051C",
        "meta_epoch": "2025-12-25T06:11:00.134016",
        "meta_mean_motion": 14.35045823,
        "meta_eccentricity": 0.0008508,
        "meta_inclination": 86.3857,
        "meta_ra_of_asc_node": 62.9667,
        "meta_arg_of_pericenter": 159.9967,
        "meta_mean_anomaly": 200.1564,
        "meta_ephemeris_type": 0,
        "meta_classification_type": "U",
        "meta_norad_cat_id": 24946,
        "meta_element_set_no": 999,
        "meta_rev_at_epoch": 48014,
        "meta_bstar": 0.00011524,
        "meta_mean_motion_dot": 3.48e-06,
        "meta_mean_motion_ddot": 0,
        "tle_line1": "1 24946U 97051C   25359.25764044  .00000348  00000+0  11524-3 0  9993",
        "tle_line2": "2 24946  86.3857  62.9667 0008508 159.9967 200.1564 14.35045823480147"
      },
      "geometry": {
        "type": "Point",
        "coordinates": [
          65.96851048827438,
          43.54786233354928
        ]
      }
    },
    {
      "type": "Feature",
      "properties": {
        "norad_id": 33773,
        "name": "IRIDIUM 33 DEB",
        "group": "iridium-33-debris",
        "lat": 41.986523457564495,
        "lon": 58.08586012561029,
        "alt_km": 740.3330645086617,
        "timestamp": "2025-12-26T07:29:18.839016+00:00",
        "meta_object_name": "IRIDIUM 33 DEB",
        "meta_object_id": "1997-051L",
        "meta_epoch": "2025-12-25T14:39:17.561952",
        "meta_mean_motion": 14.43283203,
        "meta_eccentricity": 0.0013294,
        "meta_inclination": 86.3997,
        "meta_ra_of_asc_node": 55.1348,
        "meta_arg_of_pericenter": 109.508,
        "meta_mean_anomaly": 250.7558,
        "meta_ephemeris_type": 0,
        "meta_classification_type": "U",
        "meta_norad_cat_id": 33773,
        "meta_element_set_no": 999,
        "meta_rev_at_epoch": 88533,
        "meta_bstar": 0.0002966,
        "meta_mean_motion_dot": 1.019e-05,
        "meta_mean_motion_ddot": 0,
        "tle_line1": "1 33773U 97051L   25359.61061993  .00001019  00000+0  29660-3 0  9990",
        "tle_line2": "2 33773  86.3997  55.1348 0013294 109.5080 250.7558 14.43283203885334"
      },
      "geometry": {
        "type": "Point",
        "coordinates": [
          58.08586012561029,
          41.986523457564495
        ]
      }
    },
    {
      "type": "Feature",
      "properties": {
        "norad_id": 33775,
        "name": "IRIDIUM 33 DEB",
        "group": "iridium-33-debris",
        "lat": 38.228638341641364,
        "lon": 46.63072169240601,
        "alt_km": 748.1035643930463,
        "timestamp": "2025-12-26T07:29:18.839034+00:00",
        "meta_object_name": "IRIDIUM 33 DEB",
        "meta_object_id": "1997-051N",
        "meta_epoch": "2025-12-25T15:15:04.201056",
        "meta_mean_motion": 14.41495203,
        "meta_eccentricity": 0.0015345,
        "meta_inclination": 86.3624,
        "meta_ra_of_asc_node": 44.0472,
        "meta_arg_of_pericenter": 116.415,
        "meta_mean_anomaly": 13.4748,
        "meta_ephemeris_type": 0,
        "meta_classification_type": "U",
        "meta_norad_cat_id": 33775,
        "meta_element_set_no": 999,
        "meta_rev_at_epoch": 88326,
        "meta_bstar": 0.00032187,
        "meta_mean_motion_dot": 1.066e-05,
        "meta_mean_motion_ddot": 0,
        "tle_line1": "1 33775U 97051N   25359.63546529  .00001066  00000+0  32187-3 0  9997",
        "tle_line2": "2 33775  86.3624  44.0472 0015345 116.4150  13.4748 14.41495203883260"
      },
      "geometry": {
        "type": "Point",
        "coordinates": [
          46.63072169240601,
          38.228638341641364
        ]
      }
    },
    {
      "type": "Feature",
      "properties": {
        "norad_id": 33776,
        "name": "IRIDIUM 33 DEB",
        "group": "iridium-33-debris",
        "lat": 69.3979690084748,
        "lon": -114.55635241472939,
        "alt_km": 748.628235264976,
        "timestamp": "2025-12-26T07:29:18.839048+00:00",
        "meta_object_name": "IRIDIUM 33 DEB",
        "meta_object_id": "1997-051P",
        "meta_epoch": "2025-12-25T18:12:32.556960",
        "meta_mean_motion": 14.38256901,
        "meta_eccentricity": 0.00157767,
        "meta_inclination": 86.4031,
        "meta_ra_of_asc_node": 75.3085,
        "meta_arg_of_pericenter": 149.2329,
        "meta_mean_anomaly": 338.0492,
        "meta_ephemeris_type": 0,
        "meta_classification_type": "U",
        "meta_norad_cat_id": 33776,
        "meta_element_set_no": 999,
        "meta_rev_at_epoch": 88269,
        "meta_bstar": 0.00026708408,
        "meta_mean_motion_dot": 8.32e-06,
        "meta_mean_motion_ddot": 0,
        "tle_line1": "1 33776U 97051P   25359.75871015  .00000832  00000+0  26708-3 0  9994",
        "tle_line2": "2 33776  86.4031  75.3085 0015776 149.2329 338.0492 14.38256901882695"
      },
      "geometry": {
        "type": "Point",
        "coordinates": [
          -114.55635241472939,
          69.3979690084748
        ]
      }
    },
    {
      "type": "Feature",
      "properties": {
        "norad_id": 33777,
        "name": "IRIDIUM 33 DEB",
        "group": "iridium-33-debris",
        "lat": 27.455277455902404,
        "lon": 31.184197083493547,
        "alt_km": 710.4338711493056,
        "timestamp": "2025-12-26T07:29:18.839061+00:00",
        "meta_object_name": "IRIDIUM 33 DEB",
        "meta_object_id": "1997-051Q",
        "meta_epoch": "2025-12-25T19:48:50.912064",
        "meta_mean_motion": 14.55702308,
        "meta_eccentricity": 0.00064056,
        "meta_inclination": 86.3774,
        "meta_ra_of_asc_node": 29.5095,
        "meta_arg_of_pericenter": 194.4339,
        "meta_mean_anomaly": 165.6687,
        "meta_ephemeris_type": 0,
        "meta_classification_type": "U",
        "meta_norad_cat_id": 33777,
        "meta_element_set_no": 999,
        "meta_rev_at_epoch": 88724,
        "meta_bstar": 0.00084106436,
        "meta_mean_motion_dot": 3.697e-05,
        "meta_mean_motion_ddot": 0,
        "tle_line1": "1 33777U 97051Q   25359.82558926  .00003697  00000+0  84106-3 0  9994",
        "tle_line2": "2 33777  86.3774  29.5095 0006405 194.4339 165.6687 14.55702308887245"
      },
      "geometry": {
        "type": "Point",
        "coordinates": [
          31.184197083493547,
          27.455277455902404
        ]
      }
    },
    {
      "type": "Feature",
      "properties": {
        "norad_id": 33850,
        "name": "IRIDIUM 33 DEB",
        "group": "iridium-33-debris",
        "lat": 52.288265645039154,
        "lon": 29.090421402329895,
        "alt_km": 742.9542555366188,
        "timestamp": "2025-12-26T07:29:18.839074+00:00",
        "meta_object_name": "IRIDIUM 33 DEB",
        "meta_object_id": "1997-051T",
        "meta_epoch": "2025-12-25T13:32:16.366848",
        "meta_mean_motion": 14.42178357,
        "meta_eccentricity": 0.0013303,
        "meta_inclination": 86.3408,
        "meta_ra_of_asc_node": 24.6646,
        "meta_arg_of_pericenter": 122.9915,
        "meta_mean_anomaly": 8.9113,
        "meta_ephemeris_type": 0,
        "meta_classification_type": "U",
        "meta_norad_cat_id": 33850,
        "meta_element_set_no": 999,
        "meta_rev_at_epoch": 88337,
        "meta_bstar": 0.00042851,
        "meta_mean_motion_dot": 1.431e-05,
        "meta_mean_motion_ddot": 0,
        "tle_line1": "1 33850U 97051T   25359.56407832  .00001431  00000+0  42851-3 0  9991",
        "tle_line2": "2 33850  86.3408  24.6646 0013303 122.9915   8.9113 14.42178357883370"
      },
      "geometry": {
        "type": "Point",
        "coordinates": [
          29.090421402329895,
          52.288265645039154
        ]
      }
    },
    {
      "type": "Feature",
      "properties": {
        "norad_id": 33853,
        "name": "IRIDIUM 33 DEB",
        "group": "iridium-33-debris",
        "lat": 47.150552182448806,
        "lon": 159.5328932171283,
        "alt_km": 817.8103385303948,
        "timestamp": "2025-12-26T07:29:18.839087+00:00",
        "meta_object_name": "IRIDIUM 33 DEB",
        "meta_object_id": "1997-051W",
        "meta_epoch": "2025-12-25T22:21:09.286272",
        "meta_mean_motion": 13.99124294,
        "meta_eccentricity": 0.02078177,
        "meta_inclination": 85.9999,
        "meta_ra_of_asc_node": 344.0258,
        "meta_arg_of_pericenter": 195.1397,
        "meta_mean_anomaly": 183.3683,
        "meta_ephemeris_type": 0,
        "meta_classification_type": "U",
        "meta_norad_cat_id": 33853,
        "meta_element_set_no": 999,
        "meta_rev_at_epoch": 85530,
        "meta_bstar": 0.0011388599,
        "meta_mean_motion_dot": 2.002e-05,
        "meta_mean_motion_ddot": 0,
        "tle_line1": "1 33853U 97051W   25359.93135748  .00002002  00000+0  11389-2 0  9995",
        "tle_line2": "2 33853  85.9999 344.0258 0207817 195.1397 183.3683 13.99124294855306"
      },
      "geometry": {
        "type": "Point",
        "coordinates": [
          159.5328932171283,
          47.150552182448806
        ]
      }
    }
  ]
}